[{"name": "BEIDOU-2 IGSO-1 (C06)", "line1": "1 36828U 10036A   26154.71270311 -.00000061  00000+0  00000+0 0  9993", "line2": "2 36828  54.3005 163.0810 0058950 224.9172 228.3709  1.00276584 57960"}, {"name": "BEIDOU-2 G4 (C04)", "line1": "1 37210U 10057A   26155.16902799 -.00000101  00000+0  00000+0 0  9999", "line2": "2 37210   3.6150  69.0257 0004835 204.0317 200.4240  1.00272425 57160"}, {"name": "BEIDOU-2 IGSO-2 (C07)", "line1": "1 37256U 10068A   26149.93047685 -.00000227  00000+0  00000+0 0  9992", "line2": "2 37256  47.5822 272.0579 0055238 212.8050 204.6695  1.00287198 56612"}, {"name": "BEIDOU-2 IGSO-3 (C08)", "line1": "1 37384U 11013A   26154.69025677 -.00000180  00000+0  00000+0 0  9999", "line2": "2 37384  62.3886  40.2803 0034401 185.8620  22.5488  1.00271806 55520"}, {"name": "BEIDOU-2 IGSO-4 (C09)", "line1": "1 37763U 11038A   26151.51943152  .00000047  00000+0  00000+0 0  9993", "line2": "2 37763  54.5976 165.8209 0158670 231.3955 131.4280  1.00288616 54482"}, {"name": "BEIDOU-2 IGSO-5 (C10)", "line1": "1 37948U 11073A   26154.81067041 -.00000164  00000+0  00000+0 0  9998", "line2": "2 37948  47.7037 271.7128 0113223 221.7068 142.4237  1.00276258 53009"}, {"name": "BEIDOU-2 G5 (C05)", "line1": "1 38091U 12008A   26155.14900791  .00000068  00000+0  00000+0 0  9994", "line2": "2 38091   3.5416  69.7782 0009659 276.2658  18.9155  1.00269222 52231"}, {"name": "BEIDOU-2 M3 (C11)", "line1": "1 38250U 12018A   26154.76472788 -.00000061  00000+0  00000+0 0  9993", "line2": "2 38250  55.7701 305.3272 0019880 275.0886  84.6664  1.86230161 95690"}, {"name": "BEIDOU-2 M4 (C12)", "line1": "1 38251U 12018B   26152.01220469 -.00000079  00000+0  00000+0 0  9996", "line2": "2 38251  55.6723 304.6348 0011062 278.2217  81.6260  1.86229761 95645"}, {"name": "BEIDOU-2 M6 (C14)", "line1": "1 38775U 12050B   26152.25896984 -.00000064  00000+0  00000+0 0  9994", "line2": "2 38775  56.5308  63.4210 0014006 354.6899   5.3055  1.86231095 93016"}, {"name": "BEIDOU-2 G6 (C02)", "line1": "1 38953U 12059A   26154.93254480 -.00000163  00000+0  00000+0 0  9997", "line2": "2 38953   4.3879  73.6667 0010233 326.8485 271.5225  1.00268641 49770"}, {"name": "BEIDOU-3S IGSO-1S (C31)", "line1": "1 40549U 15019A   26154.87108398 -.00000164  00000+0  00000+0 0  9990", "line2": "2 40549  49.2213 295.6213 0038494 191.1761 171.6675  1.00254002 40941"}, {"name": "BEIDOU-3S M2S (C58)", "line1": "1 40748U 15037A   26153.28873813 -.00000070  00000+0  00000+0 0  9992", "line2": "2 40748  54.8844 302.5583 0007848 262.7057  97.1823  1.86232274 73847"}, {"name": "BEIDOU-3S M1S (C57)", "line1": "1 40749U 15037B   26154.57173103 -.00000062  00000+0  00000+0 0  9992", "line2": "2 40749  54.8802 302.5027 0003703  59.9652 300.0537  1.86254987 73874"}, {"name": "BEIDOU-3S IGSO-2S (C56)", "line1": "1 40938U 15053A   26154.76900250 -.00000130  00000+0  00000+0 0  9998", "line2": "2 40938  49.2433 258.9423 0064941 192.1078 173.8319  1.00263058 39229"}, {"name": "BEIDOU-2 IGSO-6 (C13)", "line1": "1 41434U 16021A   26154.65634010 -.00000145  00000+0  00000+0 0  9998", "line2": "2 41434  60.2067  38.1749 0057320 231.5636 312.2967  1.00262467 37349"}, {"name": "BEIDOU-2 G7 (C03)", "line1": "1 41586U 16037A   26155.01658103 -.00000342  00000+0  00000+0 0  9992", "line2": "2 41586   1.6878  69.2112 0007348   0.3118 299.4820  1.00271896  6758"}, {"name": "BEIDOU-3 M1 (C19)", "line1": "1 43001U 17069A   26154.17216962 -.00000047  00000+0  00000+0 0  9993", "line2": "2 43001  56.6802  63.5462 0010988 322.8925  37.0519  1.86231656 58343"}, {"name": "BEIDOU-3 M2 (C20)", "line1": "1 43002U 17069B   26151.96304775 -.00000066  00000+0  00000+0 0  9999", "line2": "2 43002  56.6782  63.6543 0009614 347.1682  12.8156  1.86230808 58296"}, {"name": "BEIDOU-3 M7 (C27)", "line1": "1 43107U 18003A   26153.31562551 -.00000071  00000+0  00000+0 0  9999", "line2": "2 43107  54.3417 302.8330 0005070  90.2688 269.7671  1.86228333 57078"}, {"name": "BEIDOU-3 M8 (C28)", "line1": "1 43108U 18003B   26154.87148796 -.00000062  00000+0  00000+0 0  9993", "line2": "2 43108  54.3329 302.7607 0002188 267.2585  92.6999  1.86231291 57114"}, {"name": "BEIDOU-3 M4 (C22)", "line1": "1 43207U 18018A   26152.09262207 -.00000065  00000+0  00000+0 0  9998", "line2": "2 43207  56.6373  63.6787 0007684  13.3710 346.6582  1.86231482 56443"}, {"name": "BEIDOU-3 M3 (C21)", "line1": "1 43208U 18018B   26154.30692756 -.00000046  00000+0  00000+0 0  9990", "line2": "2 43208  56.6388  63.6101 0009023 337.6443  22.3370  1.86231435 56489"}, {"name": "BEIDOU-3 M9 (C29)", "line1": "1 43245U 18029A   26153.98770463 -.00000065  00000+0  00000+0 0  9999", "line2": "2 43245  54.2071 300.4454 0000846 129.9393 230.0488  1.86228707 55638"}, {"name": "BEIDOU-3 M10 (C30)", "line1": "1 43246U 18029B   26153.92214002 -.00000065  00000+0  00000+0 0  9996", "line2": "2 43246  54.2045 300.4735 0004218  39.7967 320.2145  1.86229469 55610"}, {"name": "BEIDOU-2 IGSO-7 (C16)", "line1": "1 43539U 18057A   26154.94524668 -.00000006  00000+0  00000+0 0  9992", "line2": "2 43539  55.1930 163.1730 0104471 237.8941 302.5487  1.00255567 28999"}, {"name": "BEIDOU-3 M5 (C23)", "line1": "1 43581U 18062A   26153.07238422  .00000068  00000+0  00000+0 0  9995", "line2": "2 43581  54.0848 182.8178 0005400 289.3317  70.6790  1.86228829 53350"}, {"name": "BEIDOU-3 M6 (C24)", "line1": "1 43582U 18062B   26152.39883191  .00000072  00000+0  00000+0 0  9994", "line2": "2 43582  54.0843 182.8299 0004893  10.9219 349.1611  1.86227844 53345"}, {"name": "BEIDOU-3 M12 (C26)", "line1": "1 43602U 18067A   26154.48504632  .00000068  00000+0  00000+0 0  9999", "line2": "2 43602  54.1795 181.5047 0007805  30.5016 329.6039  1.86227912 52860"}, {"name": "BEIDOU-3 M11 (C25)", "line1": "1 43603U 18067B   26154.62006891  .00000068  00000+0  00000+0 0  9990", "line2": "2 43603  54.1771 181.4639 0004486  14.2691 345.8030  1.86227374 52897"}, {"name": "BEIDOU-3 M13 (C32)", "line1": "1 43622U 18072A   26152.96411940 -.00000057  00000+0  00000+0 0  9996", "line2": "2 43622  56.6123  63.1614 0007816 326.1971  33.7678  1.86231411 52372"}, {"name": "BEIDOU-3 M14 (C33)", "line1": "1 43623U 18072B   26152.29259498 -.00000063  00000+0  00000+0 0  9998", "line2": "2 43623  56.6136  63.1776 0006504 353.8390   6.1639  1.86231413 52352"}, {"name": "BEIDOU-3 M16 (C35)", "line1": "1 43647U 18078A   26155.13289917 -.00000059  00000+0  00000+0 0  9990", "line2": "2 43647  54.1026 300.4437 0007437  40.6821 319.3585  1.86232447 51914"}, {"name": "BEIDOU-3 M15 (C34)", "line1": "1 43648U 18078B   26152.57744501 -.00000074  00000+0  00000+0 0  9998", "line2": "2 43648  54.1007 300.5335 0004536  56.3394 303.6792  1.86232507 51887"}, {"name": "BEIDOU-3 G1 (C59)", "line1": "1 43683U 18085A   26155.16902799 -.00000097  00000+0  00000+0 0  9993", "line2": "2 43683   2.8355  97.7357 0008549 345.5119  30.2041  1.00272093 27936"}, {"name": "BEIDOU-3 M17 (C36)", "line1": "1 43706U 18093A   26154.62162884  .00000067  00000+0  00000+0 0  9997", "line2": "2 43706  54.1684 182.7566 0009972 291.4336 250.9335  1.86228565 51286"}, {"name": "BEIDOU-3 M18 (C37)", "line1": "1 43707U 18093B   26153.13892792  .00000068  00000+0  00000+0 0  9992", "line2": "2 43707  54.1690 182.7990 0007761 321.3599  38.6535  1.86226715 51258"}, {"name": "BEIDOU-3 IGSO-1 (C38)", "line1": "1 44204U 19023A   26141.61780730 -.00000234  00000+0  00000+0 0  9993", "line2": "2 44204  58.6591  37.9235 0025546 227.4594 312.4431  1.00299087  6947"}, {"name": "BEIDOU-2 G8 (C01)", "line1": "1 44231U 19027A   26155.16599464 -.00000235  00000+0  00000+0 0  9995", "line2": "2 44231   1.6255  74.4913 0010765 284.2571  98.0941  1.00276022 25953"}, {"name": "BEIDOU-3 IGSO-2 (C39)", "line1": "1 44337U 19035A   26154.61080799 -.00000071  00000+0  00000+0 0  9994", "line2": "2 44337  55.2443 158.9810 0039672 216.0015 216.9100  1.00271103 25539"}, {"name": "BEIDOU-3 M24 (C46)", "line1": "1 44542U 19061A   26154.81861688  .00000068  00000+0  00000+0 0  9992", "line2": "2 44542  54.3956 183.1788 0008298 359.6968   0.3644  1.86229258 45540"}, {"name": "BEIDOU-3 M23 (C45)", "line1": "1 44543U 19061B   26154.68386650  .00000068  00000+0  00000+0 0  9999", "line2": "2 44543  54.3944 183.1515 0005545 339.9978 201.4019  1.86227422 45541"}, {"name": "BEIDOU-3 IGSO-3 (C40)", "line1": "1 44709U 19073A   26136.81046384 -.00000217  00000+0  00000+0 0  9995", "line2": "2 44709  54.8566 281.2355 0042953 189.4588 170.3676  1.00246251 24144"}, {"name": "BEIDOU-3 M22 (C44)", "line1": "1 44793U 19078A   26151.97339797 -.00000079  00000+0  00000+0 0  9996", "line2": "2 44793  53.9515 300.3973 0006799  49.8773 310.1558  1.86227466 44341"}, {"name": "BEIDOU-3 M21 (C43)", "line1": "1 44794U 19078B   26152.11336162 -.00000078  00000+0  00000+0 0  9996", "line2": "2 44794  53.9245 300.3540 0004659  48.1106 311.9031  1.86227902 44358"}, {"name": "BEIDOU-3 M19 (C41)", "line1": "1 44864U 19090A   26153.18027023 -.00000055  00000+0  00000+0 0  9994", "line2": "2 44864  56.5459  63.2868 0018350 297.3172 255.2065  1.86231755 43957"}, {"name": "BEIDOU-3 M20 (C42)", "line1": "1 44865U 19090B   26152.40309426 -.00000062  00000+0  00000+0 0  9997", "line2": "2 44865  56.5472  63.3464 0016275 310.6292 170.4314  1.86231789 43921"}, {"name": "BEIDOU-3 G2 (C60)", "line1": "1 45344U 20017A   26155.21225333 -.00000129  00000+0  00000+0 0  9991", "line2": "2 45344   2.8382  47.1563 0002877  24.6448 337.2914  1.00270995 23134"}, {"name": "BEIDOU-3 G3 (C61)", "line1": "1 45807U 20040A   26155.08791670 -.00000342  00000+0  00000+0 0  9995", "line2": "2 45807   2.4155  67.4219 0003085 335.3952 351.9314  1.00274764 21930"}, {"name": "BEIDOU-3 G4 (C62)", "line1": "1 56564U 23066A   26155.16504131 -.00000270  00000+0  00000+0 0  9991", "line2": "2 56564   0.5024 328.1274 0004392 167.7112 316.2211  1.00268888 11266"}, {"name": "BEIDOU-3 M28 (C50)", "line1": "1 58654U 23207A   26153.26442756 -.00000057  00000+0  00000+0 0  9996", "line2": "2 58654  55.7401  62.8066 0003671 340.5221  19.4799  1.86229873 16567"}, {"name": "BEIDOU-3 M26 (C48)", "line1": "1 58655U 23207B   26154.13584299 -.00000050  00000+0  00000+0 0  9996", "line2": "2 58655  55.7428  62.7637 0003644 315.9700  44.0214  1.86229917 16563"}, {"name": "BEIDOU-3 M25 (C47)", "line1": "1 61186U 24168B   26154.51065918 -.00000063  00000+0  00000+0 0  9994", "line2": "2 61186  54.4863 302.7180 0003051 307.2395  61.3558  1.86230357 11536"}, {"name": "BEIDOU-3 M27 (C49)", "line1": "1 61187U 24168C   26155.10525010 -.00000060  00000+0  00000+0 0  9992", "line2": "2 61187  54.4813 302.6804 0001811  47.0826 135.1797  1.86230403  9011"}]